[{"OBJECT_NAME":"STARLINK-30981","OBJECT_ID":"2023-186X","EPOCH":"2026-03-09T01:30:59.940864","MEAN_MOTION":15.27574809,"ECCENTRICITY":0.00014849,"INCLINATION":43.0033,"RA_OF_ASC_NODE":66.9033,"ARG_OF_PERICENTER":266.4652,"MEAN_ANOMALY":93.603,"EPHEMERIS_TYPE":0,"CLASSIFICATION_TYPE":"U","NORAD_CAT_ID":58494,"ELEMENT_SET_NO":999,"REV_AT_EPOCH":12579,"BSTAR":2.7009633e-5,"MEAN_MOTION_DOT":4.81e-6,"MEAN_MOTION_DDOT":0},{"OBJECT_NAME":"CZ-6A DEB","OBJECT_ID":"2022-151QV","EPOCH":"2026-03-09T04:36:08.895168","MEAN_MOTION":15.24642942,"ECCENTRICITY":0.00273347,"INCLINATION":98.639,"RA_OF_ASC_NODE":154.2763,"ARG_OF_PERICENTER":174.5721,"MEAN_ANOMALY":185.5815,"EPHEMERIS_TYPE":0,"CLASSIFICATION_TYPE":"U","NORAD_CAT_ID":54908,"ELEMENT_SET_NO":999,"REV_AT_EPOCH":17373,"BSTAR":0.0098290719,"MEAN_MOTION_DOT":0.00253193,"MEAN_MOTION_DDOT":0}]
